NORAD_CAT_ID,OBJECT_NAME,OBJECT_TYPE,EPOCH,MEAN_MOTION,ECCENTRICITY,INCLINATION,RA_OF_ASC_NODE,ARG_OF_PERICENTER,MEAN_ANOMALY,BSTAR,MEAN_MOTION_DOT,MEAN_MOTION_DDOT,TLE_LINE0,TLE_LINE1,TLE_LINE2,SEMIMAJOR_AXIS,PERIOD,APOGEE,PERIGEE,DECAYED
55300.0,STARLINK-5308,PAYLOAD,2023-06-12 14:00:01,15.05938627,0.0003167,70.0024,28.5041,269.8139,157.239,-0.06882,-0.00927222,0.0,0 STARLINK-5308,1 55300U 23010AH  23163.58335648 -.00927222  00000-0 -68820-1 0  9997,2 55300  70.0024  28.5041 0003167 269.8139 157.2390 15.05938627 23012,6926.763,95.621,550.822,546.434,0.0
55300.0,STARLINK-5308,PAYLOAD,2023-06-13 00:00:00,15.05085329,0.000306,70.0024,27.4419,275.5761,249.0516,-0.065705,-0.00869406,0.0,0 STARLINK-5308,1 55300U 23010AH  23164.00001157 -.00869406  00000-0 -65705-1 0  9998,2 55300  70.0024  27.4419 0003060 275.5761 249.0516 15.05085329  1306,6929.381,95.676,553.366,549.125,0.0
55300.0,STARLINK-5308,PAYLOAD,2023-06-13 14:00:01,15.0398496,0.0003153,70.0025,25.957,269.9621,173.2695,-0.073008,-0.00932808,0.0,0 STARLINK-5308,1 55300U 23010AH  23164.58334491 -.00932808  00000-0 -73008-1 0  9993,2 55300  70.0025  25.9570 0003153 269.9621 173.2695 15.03984960 23164,6932.76,95.746,556.811,552.439,0.0
55300.0,STARLINK-5308,PAYLOAD,2023-06-13 22:00:00,15.03284092,0.0003215,70.0023,25.1097,275.3283,171.774,-0.068779,-0.00867375,0.0,0 STARLINK-5308,1 55300U 23010AH  23164.91667824 -.00867375  00000-0 -68779-1 0  9994,2 55300  70.0023  25.1097 0003215 275.3283 171.7740 15.03284092  1307,6934.915,95.79,559.009,554.55,0.0
55300.0,STARLINK-5308,PAYLOAD,2023-06-14 14:00:01,15.02029866,0.0003148,70.0024,23.4177,270.0569,182.3757,-0.077188,-0.00946614,0.0,0 STARLINK-5308,1 55300U 23010AH  23165.58334491 -.00946614  00000-0 -77188-1 0  9997,2 55300  70.0024  23.4177 0003148 270.0569 182.3757 15.02029866  1303,6938.775,95.87,562.824,558.456,0.0
55300.0,STARLINK-5308,PAYLOAD,2023-06-14 22:00:00,15.01328534,0.0003233,70.0022,22.573,275.8168,178.1395,-0.072527,-0.00868311,0.0,0 STARLINK-5308,1 55300U 23010AH  23165.91667824 -.00868311  00000-0 -72527-1 0  9992,2 55300  70.0022  22.5730 0003233 275.8168 178.1395 15.01328534 23363,6940.936,95.915,565.045,560.557,0.0
55300.0,STARLINK-5308,PAYLOAD,2023-06-15 14:00:01,15.00034137,0.0003185,70.0021,20.886,269.4232,185.1792,-0.072977,-0.00846058,0.0,0 STARLINK-5308,1 55300U 23010AH  23166.58334491 -.00846058  00000-0 -72977-1 0  9990,2 55300  70.0021  20.8860 0003185 269.4232 185.1792 15.00034137 23466,6944.928,95.998,569.005,564.581,0.0
55300.0,STARLINK-5308,PAYLOAD,2023-06-15 20:00:01,14.99382827,0.0003269,70.0019,20.2541,272.3244,91.7507,-0.012427,-0.00149287,0.0,0 STARLINK-5308,1 55300U 23010AH  23166.83334491 -.00149287  00000-0 -12427-1 0  9992,2 55300  70.0019  20.2541 0003269 272.3244  91.7507 14.99382827 23490,6946.939,96.04,571.075,566.533,0.0
55300.0,STARLINK-5308,PAYLOAD,2023-06-16 06:00:00,14.99315389,0.0003238,70.0015,19.2017,272.2467,180.1674,-0.0046161,-0.0005615,0.0,0 STARLINK-5308,1 55300U 23010AH  23167.25001157 -.00056150  00000-0 -46161-2 0  9998,2 55300  70.0015  19.2017 0003238 272.2467 180.1674 14.99315389 23569,6947.147,96.044,571.262,566.763,0.0
55300.0,STARLINK-5308,PAYLOAD,2023-06-16 14:00:01,14.99296371,0.0003265,70.0017,18.3602,267.4336,183.6184,0.0023162,0.00028359,0.0,0 STARLINK-5308,1 55300U 23010AH  23167.58334491  .00028359  00000-0  23162-2 0  9998,2 55300  70.0017  18.3602 0003265 267.4336 183.6184 14.99296371 23611,6947.206,96.045,571.339,566.803,0.0
55300.0,STARLINK-5308,PAYLOAD,2023-06-16 22:00:00,14.99304815,0.0003287,70.0016,17.5183,272.5007,177.2068,-0.00063822,-7.895e-05,0.0,0 STARLINK-5308,1 55300U 23010AH  23167.91667824 -.00007895  00000-0 -63822-3 0  9996,2 55300  70.0016  17.5183 0003287 272.5007 177.2068 14.99304815  1306,6947.18,96.045,571.329,566.761,0.0
55300.0,STARLINK-5308,PAYLOAD,2023-06-17 06:00:02,14.99306972,0.0003262,70.0012,16.6764,269.6773,178.7384,-0.0030299,-0.0003698,0.0,0 STARLINK-5308,1 55300U 23010AH  23168.25002315 -.00036980  00000-0 -30299-2 0  9990,2 55300  70.0012  16.6764 0003262 269.6773 178.7384 14.99306972 23719,6947.173,96.044,571.304,566.772,0.0
55300.0,STARLINK-5308,PAYLOAD,2023-06-17 14:00:01,14.99295975,0.00033,70.0015,15.8347,264.8392,182.144,0.0013808,0.0001684,0.0,0 STARLINK-5308,1 55300U 23010AH  23168.58334491  .00016840  00000-0  13808-2 0  9997,2 55300  70.0015  15.8347 0003300 264.8392 182.1440 14.99295975  1300,6947.207,96.045,571.365,566.78,0.0
55300.0,STARLINK-5308,PAYLOAD,2023-06-17 20:01:05,14.99483491,0.0003056,70.0001,15.2017,264.841,95.24,-0.0029634,-0.00036339,0.0,0 STARLINK-5308,1 55300U 23010AH  23168.83409121 -.00036339  00000-0 -29634-2 0  9999,2 55300  70.0001  15.2017 0003056 264.8410  95.2400 14.99483491 24107,6946.628,96.033,570.616,566.37,0.0
55300.0,STARLINK-5308,PAYLOAD,2023-06-17 22:00:01,14.99320457,0.0003348,70.0014,14.9927,270.8468,174.8477,-0.0055042,-0.00066843,0.0,0 STARLINK-5308,1 55300U 23010AH  23168.91668981 -.00066843  00000-0 -55042-2 0  9994,2 55300  70.0014  14.9927 0003348 270.8468 174.8477 14.99320457 23818,6947.132,96.044,571.323,566.671,0.0
55300.0,STARLINK-5308,PAYLOAD,2023-06-18 06:00:00,14.99506338,0.0003381,70.001,14.151,270.0004,174.2546,-0.0652,-0.0075168,0.0,0 STARLINK-5308,1 55300U 23010AH  23169.25001157 -.00751680  00000-0 -65200-1 0  9994,2 55300  70.0010  14.1510 0003381 270.0004 174.2546 14.99506338 23869,6946.558,96.032,570.771,566.074,0.0
55300.0,STARLINK-5308,PAYLOAD,2023-06-18 14:00:01,14.98908479,0.0003459,70.0014,13.3092,265.4378,177.4721,-0.062246,-0.00701973,0.0,0 STARLINK-5308,1 55300U 23010AH  23169.58335648 -.00701973  00000-0 -62246-1 0  9992,2 55300  70.0014  13.3092 0003459 265.4378 177.4721 14.98908479 23914,6948.405,96.07,572.673,567.866,0.0
55300.0,STARLINK-5308,PAYLOAD,2023-06-18 20:02:28,14.99128787,0.0002159,69.9995,12.675,250.2177,109.875,-0.001677,-0.00020461,0.0,0 STARLINK-5308,1 55300U 23010AH  23169.83505087 -.00020461  00000-0 -16770-2 0  9994,2 55300  69.9995  12.6750 0002159 250.2177 109.8750 14.99128787 23948,6947.724,96.056,571.089,568.089,0.0
55300.0,STARLINK-5308,PAYLOAD,2023-06-18 23:15:01,14.9884012,0.0004386,69.9996,12.3389,270.5191,89.5465,-0.0046972,-0.00056438,0.0,0 STARLINK-5308,1 55300U 23010AH  23169.96876445 -.00056438  00000-0 -46972-2 0  9997,2 55300  69.9996  12.3389 0004386 270.5191  89.5465 14.98840120 23969,6948.616,96.074,573.528,567.433,0.0
55300.0,STARLINK-5308,PAYLOAD,2023-06-19 16:52:18,14.9870067,0.0003428,69.9998,10.4871,266.113,93.9638,-0.0051372,-0.00061444,0.0,0 STARLINK-5308,1 55300U 23010AH  23170.70299433 -.00061444  00000-0 -51372-2 0  9990,2 55300  69.9998  10.4871 0003428 266.1130  93.9638 14.98700670 24075,6949.047,96.083,573.294,568.53,0.0
55300.0,STARLINK-5308,PAYLOAD,2023-06-19 23:16:46,14.98678116,0.0003508,69.9998,9.8134,269.2786,90.7971,-0.0049876,-0.00059638,0.0,0 STARLINK-5308,1 55300U 23010AH  23170.96997824 -.00059638  00000-0 -49876-2 0  9995,2 55300  69.9998   9.8134 0003508 269.2786  90.7971 14.98678116 24422,6949.117,96.085,573.419,568.544,0.0
55300.0,STARLINK-5308,PAYLOAD,2023-06-20 16:54:05,14.98567325,0.0003829,69.9998,7.9619,262.3003,97.7721,-0.0037946,-0.00045359,0.0,0 STARLINK-5308,1 55300U 23010AH  23171.70423127 -.00045359  00000-0 -37946-2 0  9998,2 55300  69.9998   7.9619 0003829 262.3003  97.7721 14.98567325 24228,6949.459,96.092,573.985,568.663,0.0
55300.0,STARLINK-5308,PAYLOAD,2023-06-20 20:06:21,14.98478782,0.000339,70.0001,7.6254,267.3707,92.7064,-0.0023701,-0.00028368,0.0,0 STARLINK-5308,1 55300U 23010AH  23171.83774987 -.00028368  00000-0 -23701-2 0  9990,2 55300  70.0001   7.6254 0003390 267.3707  92.7064 14.98478782 24556,6949.733,96.097,573.954,569.242,0.0
55300.0,STARLINK-5308,PAYLOAD,2023-06-21 06:00:00,14.98328085,0.0003408,70.0014,6.5845,268.6491,154.4599,-0.0015356,-0.00018367,0.0,0 STARLINK-5308,1 55300U 23010AH  23172.25001157 -.00018367  00000-0 -15356-2 0  9994,2 55300  70.0014   6.5845 0003408 268.6491 154.4599 14.98328085 24311,6950.199,96.107,574.432,569.695,0.0
55300.0,STARLINK-5308,PAYLOAD,2023-06-21 14:00:01,14.98342126,0.0003458,70.0018,5.7441,266.2007,154.3719,-0.00068473,-8.256e-05,0.0,0 STARLINK-5308,1 55300U 23010AH  23172.58334491 -.00008256  00000-0 -68473-3 0  9995,2 55300  70.0018   5.7441 0003458 266.2007 154.3719 14.98342126  1309,6950.155,96.106,574.424,569.617,0.0
55300.0,STARLINK-5308,PAYLOAD,2023-06-21 22:00:01,14.9831894,0.0003422,70.0017,4.9035,272.4925,145.6425,0.0012688,0.00015075,0.0,0 STARLINK-5308,1 55300U 23010AH  23172.91668981  .00015075  00000-0  12688-2 0  9997,2 55300  70.0017   4.9035 0003422 272.4925 145.6425 14.98318940 24418,6950.227,96.108,574.47,569.714,0.0
55300.0,STARLINK-5308,PAYLOAD,2023-06-22 20:00:01,14.98332087,0.0003425,70.0018,2.5923,272.3827,48.7613,-0.00070376,-8.481e-05,0.0,0 STARLINK-5308,1 55300U 23010AH  23173.83334491 -.00008481  00000-0 -70376-3 0  9999,2 55300  70.0018   2.5923 0003425 272.3827  48.7613 14.98332087 24546,6950.186,96.107,574.432,569.671,0.0
55300.0,STARLINK-5308,PAYLOAD,2023-06-22 23:22:40,14.98332649,0.0003241,70.0003,2.2381,267.6217,92.4571,-1.2575e-05,-2.43e-06,0.0,0 STARLINK-5308,1 55300U 23010AH  23173.97408348 -.00000243  00000-0 -12575-4 0  9993,2 55300  70.0003   2.2381 0003241 267.6217  92.4571 14.98332649 24566,6950.185,96.107,574.302,569.797,0.0
55300.0,STARLINK-5308,PAYLOAD,2023-06-24 05:49:14,14.98329867,0.0003361,69.9999,359.0397,269.9323,90.1451,8.5924e-06,9e-08,0.0,0 STARLINK-5308,1 55300U 23010AH  23175.24252403  .00000009  00000-0  85924-5 0  9991,2 55300  69.9999 359.0397 0003361 269.9323  90.1451 14.98329867 24754,6950.193,96.107,574.394,569.722,0.0
55300.0,STARLINK-5308,PAYLOAD,2023-06-25 05:51:15,14.98328732,0.0003336,70.0,356.515,270.0121,90.0656,-1.745e-05,-3.01e-06,0.0,0 STARLINK-5308,1 55300U 23010AH  23176.24392609 -.00000301  00000-0 -17450-4 0  9990,2 55300  70.0000 356.5150 0003336 270.0121  90.0656 14.98328732 24903,6950.197,96.107,574.38,569.743,0.0
